From: horizons@ssd.jpl.nasa.gov (Horizons Ephemeris System)
Subject: [Horizons] SMALL BODY #C(500@10)_T(Swift (D/1895 Q1)) (1/1)
Date: March 1, 2021 at 1:23:15 PM PST

Automated mail xmit by MAIL_REQUEST, PID= 2301 Mon Mar  1 13:23:15 2021
++++++++++++++++++++++++++++++++ (part 1 of 1)  +++++++++++++++++++++++++++++++
*******************************************************************************
JPL/HORIZONS                  Swift (D/1895 Q1)            2021-Mar-01 13:23:14
Rec #:90001676                  Soln.date: -             # obs: 182 (1895-1896)

IAU76/J2000 helio. ecliptic osc. elements (au, days, deg., period=Julian yrs):

 EPOCH=  2413430.5 ! 1895-Aug-25.0000000 (TDB)    RMSW= n.a.
  EC= .652013             QR= 1.297763            TP= 2413426.8155999999
  OM= 171.7537            W= 167.7817             IN= 2.9923
  A= 3.729343337538471    MA= .5042225861190663   ADIST= 6.160923675076941
  PER= 7.2020605177288    N= .136853374           ANGMOM= .025187547
  DAN= 5.91009            DDN= 1.30947            L= 339.5515594
  B= .6330061                                     TP= 1895-Aug-21.3155999999

Comet physical (GM= km^3/s^2; RAD= km):
  GM= n.a.                RAD= n.a.
  M1=  n.a.     M2=  n.a.     k1= n.a.    k2= n.a.     PHCOF= n.a.

COMET comments 
1: soln ref.= SAO_2008, data arc: 1895-08-24 to 1896-02-06
2: epoch may be 2413431.0 (hour ambiguous: 12h/0h); 2008 SAO Comet Catalog
*******************************************************************************


*******************************************************************************
Ephemeris / MAIL_REQUEST Mon Mar  1 13:23:15 2021 Pasadena, USA  / Horizons
*******************************************************************************
Target body name: Swift (D/1895 Q1)               {source: DASTCOM}
Center body name: Sun (10)                        {source: DE431}
Center-site name: BODY CENTER
*******************************************************************************
Start time      : A.D. 1990-Jan-01 00:00:00.0000 TDB
Stop  time      : A.D. 2020-Dec-31 00:00:00.0000 TDB
Step-size       : 10080 minutes
*******************************************************************************
Center geodetic : 0.00000000,0.00000000,0.0000000 {E-lon(deg),Lat(deg),Alt(km)}
Center cylindric: 0.00000000,0.00000000,0.0000000 {E-lon(deg),Dxy(km),Dz(km)}
Center radii    : 696000.0 x 696000.0 x 696000.0 k{Equator, meridian, pole}    
Small perturbers: Yes                             {source: SB431-N16}
Output units    : AU-D
Output type     : GEOMETRIC cartesian states
Output format   : 6 (LT, range, and range-rate)
Reference frame : Ecliptic of J2000.0
*******************************************************************************
Initial IAU76/J2000 heliocentric ecliptic osculating elements (au, days, deg.):
 EPOCH=  2413430.5 ! 1895-Aug-25.0000000 (TDB)    RMSW= n.a.                  
  EC= .652013             QR= 1.297763            TP= 2413426.8155999999      
  OM= 171.7537            W= 167.7817             IN= 2.9923                  
 Equivalent ICRF heliocentric equatorial cartesian coordinates (au, au/d):
  X= 1.239776039897409E+00  Y=-3.584570125185184E-01  Z=-1.437727519181937E-01
 VX= 6.169835588841068E-03 VY= 1.724795126051912E-02 VZ= 6.391841671258874E-03
Comet physical (GM= km^3/s^2; RAD= km):                                        
  GM= n.a.                RAD= n.a.                                           
  M1=  n.a.     M2=  n.a.     k1= n.a.    k2= n.a.     PHCOF= n.a.            
*******************************************************************************
           JDTDB,            Calendar Date (TDB),                     LT,                     RG,                     RR,
**************************************************************************************************************************
$$SOE
2455781.500000000, A.D. 2011-Aug-08 00:00:00.0000,  1.274208732286791E-02,  2.206224029021058E+00,  6.762284086271469E-03,
2455788.500000000, A.D. 2011-Aug-15 00:00:00.0000,  1.301607551519905E-02,  2.253663613939312E+00,  6.790108117951544E-03,
2455795.500000000, A.D. 2011-Aug-22 00:00:00.0000,  1.329098141678660E-02,  2.301262095289669E+00,  6.807879146862225E-03,
2455802.500000000, A.D. 2011-Aug-29 00:00:00.0000,  1.356642156532994E-02,  2.348953078632946E+00,  6.816713500839439E-03,
2455809.500000000, A.D. 2011-Sep-05 00:00:00.0000,  1.384205529165119E-02,  2.396677578929471E+00,  6.817613547782992E-03,
2455816.500000000, A.D. 2011-Sep-12 00:00:00.0000,  1.411758032898801E-02,  2.444383260311711E+00,  6.811478478814791E-03,
2455823.500000000, A.D. 2011-Sep-19 00:00:00.0000,  1.439272883603705E-02,  2.492023747495583E+00,  6.799113264184404E-03,
2455830.500000000, A.D. 2011-Sep-26 00:00:00.0000,  1.466726371883422E-02,  2.539557988933764E+00,  6.781235264747889E-03,
2455837.500000000, A.D. 2011-Oct-03 00:00:00.0000,  1.494097526606737E-02,  2.586949674238145E+00,  6.758483407770098E-03,
2455844.500000000, A.D. 2011-Oct-10 00:00:00.0000,  1.521367816949500E-02,  2.634166718281322E+00,  6.731427335327600E-03,
2455851.500000000, A.D. 2011-Oct-17 00:00:00.0000,  1.548520887639685E-02,  2.681180802787619E+00,  6.700574784228704E-03,
2455858.500000000, A.D. 2011-Oct-24 00:00:00.0000,  1.575542322009009E-02,  2.727966966069696E+00,  6.666378074971015E-03,
2455865.500000000, A.D. 2011-Oct-31 00:00:00.0000,  1.602419430096483E-02,  2.774503236141211E+00,  6.629240026594781E-03,
2455872.500000000, A.D. 2011-Nov-07 00:00:00.0000,  1.629141059529683E-02,  2.820770303267897E+00,  6.589519307759552E-03,
2455879.500000000, A.D. 2011-Nov-14 00:00:00.0000,  1.655697426883112E-02,  2.866751227973613E+00,  6.547535214761556E-03,
2455886.500000000, A.D. 2011-Nov-21 00:00:00.0000,  1.682079967194822E-02,  2.912431180486457E+00,  6.503571880107487E-03,
2455893.500000000, A.D. 2011-Nov-28 00:00:00.0000,  1.708281199518194E-02,  2.957797207948884E+00,  6.457882052310894E-03,
2455900.500000000, A.D. 2011-Dec-05 00:00:00.0000,  1.734294608008264E-02,  3.002838028525066E+00,  6.410691184647461E-03,
2455907.500000000, A.D. 2011-Dec-12 00:00:00.0000,  1.760114540963936E-02,  3.047543856597899E+00,  6.362201920450381E-03,
2455914.500000000, A.D. 2011-Dec-19 00:00:00.0000,  1.785736122703485E-02,  3.091906250186171E+00,  6.312595406056723E-03,
2455921.500000000, A.D. 2011-Dec-26 00:00:00.0000,  1.811155166433099E-02,  3.135917960081116E+00,  6.262031642343669E-03,
2455928.500000000, A.D. 2012-Jan-02 00:00:00.0000,  1.836368094760359E-02,  3.179572792219770E+00,  6.210652678804408E-03,
2455935.500000000, A.D. 2012-Jan-09 00:00:00.0000,  1.861371873144809E-02,  3.222865492458206E+00,  6.158585354649786E-03,
2455942.500000000, A.D. 2012-Jan-16 00:00:00.0000,  1.886163952039333E-02,  3.265791646392437E+00,  6.105943001483605E-03,
2455949.500000000, A.D. 2012-Jan-23 00:00:00.0000,  1.910742215130152E-02,  3.308347589738745E+00,  6.052826826202323E-03,
2455956.500000000, A.D. 2012-Jan-30 00:00:00.0000,  1.935104932883859E-02,  3.350530327902863E+00,  5.999327158981936E-03,
2455963.500000000, A.D. 2012-Feb-06 00:00:00.0000,  1.959250720868221E-02,  3.392337463814688E+00,  5.945524562665523E-03,
2455970.500000000, A.D. 2012-Feb-13 00:00:00.0000,  1.983178502224068E-02,  3.433767132950365E+00,  5.891490770039529E-03,
2455977.500000000, A.D. 2012-Feb-20 00:00:00.0000,  2.006887473520020E-02,  3.474817944211580E+00,  5.837289422421369E-03,
2455984.500000000, A.D. 2012-Feb-27 00:00:00.0000,  2.030377073498247E-02,  3.515488925810530E+00,  5.782976864855917E-03,
2455991.500000000, A.D. 2012-Mar-05 00:00:00.0000,  2.053646956845502E-02,  3.555779479855860E+00,  5.728604013393973E-03,
2455998.500000000, A.D. 2012-Mar-12 00:00:00.0000,  2.076696976650957E-02,  3.595689351979354E+00,  5.674218099386635E-03,
2456005.500000000, A.D. 2012-Mar-19 00:00:00.0000,  2.099527166673395E-02,  3.635218600632535E+00,  5.619860853019722E-03,
2456012.500000000, A.D. 2012-Mar-26 00:00:00.0000,  2.122137716671365E-02,  3.674367554372146E+00,  5.565567945534665E-03,
2456019.500000000, A.D. 2012-Apr-02 00:00:00.0000,  2.144528951272214E-02,  3.713136775273014E+00,  5.511370668345281E-03,
2456026.500000000, A.D. 2012-Apr-09 00:00:00.0000,  2.166701314435384E-02,  3.751527032027084E+00,  5.457296843172268E-03,
2456033.500000000, A.D. 2012-Apr-16 00:00:00.0000,  2.188655356179709E-02,  3.789539276962445E+00,  5.403371158098066E-03,
2456040.500000000, A.D. 2012-Apr-23 00:00:00.0000,  2.210391720411249E-02,  3.827174624967879E+00,  5.349615410491853E-03,
2456047.500000000, A.D. 2012-Apr-30 00:00:00.0000,  2.231911133706813E-02,  3.864434334072134E+00,  5.296048736345180E-03,
2456054.500000000, A.D. 2012-May-07 00:00:00.0000,  2.253214394958742E-02,  3.901319787514421E+00,  5.242687799728496E-03,
2456061.500000000, A.D. 2012-May-14 00:00:00.0000,  2.274302365613357E-02,  3.937832476842805E+00,  5.189546885969560E-03,
2456068.500000000, A.D. 2012-May-21 00:00:00.0000,  2.295175960030440E-02,  3.973973985222175E+00,  5.136637885273014E-03,
2456075.500000000, A.D. 2012-May-28 00:00:00.0000,  2.315836136283576E-02,  4.009745971505517E+00,  5.083970714461602E-03,
2456082.500000000, A.D. 2012-Jun-04 00:00:00.0000,  2.336283891576937E-02,  4.045150162298336E+00,  5.031555172970576E-03,
2456089.500000000, A.D. 2012-Jun-11 00:00:00.0000,  2.356520263635328E-02,  4.080188354365428E+00,  4.979401140804704E-03,
2456096.500000000, A.D. 2012-Jun-18 00:00:00.0000,  2.376546325643844E-02,  4.114862405869190E+00,  4.927516003329481E-03,
2456103.500000000, A.D. 2012-Jun-25 00:00:00.0000,  2.396363175514105E-02,  4.149174217784660E+00,  4.875904850036323E-03,
2456110.500000000, A.D. 2012-Jul-02 00:00:00.0000,  2.415971929249324E-02,  4.183125722411500E+00,  4.824571662060241E-03,
2456117.500000000, A.D. 2012-Jul-09 00:00:00.0000,  2.435373717403859E-02,  4.216718877243903E+00,  4.773519675456732E-03,
